NORAD_CAT_ID,OBJECT_NAME,OBJECT_TYPE,EPOCH,MEAN_MOTION,ECCENTRICITY,INCLINATION,RA_OF_ASC_NODE,ARG_OF_PERICENTER,MEAN_ANOMALY,BSTAR,MEAN_MOTION_DOT,MEAN_MOTION_DDOT,TLE_LINE0,TLE_LINE1,TLE_LINE2,SEMIMAJOR_AXIS,PERIOD,APOGEE,PERIGEE,DECAYED
52541.0,STARLINK-3845,PAYLOAD,2022-08-03 14:00:01,15.08826122,0.0002268,53.2136,273.3936,39.5488,327.7118,0.0023096,0.00036648,0.0,0 STARLINK-3845,1 52541U 22051J   22215.58334491  .00036648  00000-0  23096-2 0  9995,2 52541  53.2136 273.3936 0002268  39.5488 327.7118 15.08826122 13050,6917.9230000000025,95.438,541.357,538.219,0.0
52541.0,STARLINK-3845,PAYLOAD,2022-08-03 22:00:01,15.08847069,0.0002056,53.2136,271.8954,41.0441,337.8806,-0.0024341,-0.00038827,0.0,0 STARLINK-3845,1 52541U 22051J   22215.91668981 -.00038827  00000-0 -24341-2 0  9993,2 52541  53.2136 271.8954 0002056  41.0441 337.8806 15.08847069  1309,6917.859,95.437,541.146,538.3009999999998,0.0
52541.0,STARLINK-3845,PAYLOAD,2022-08-04 06:00:00,15.08840709,0.0002029,53.2138,270.3992,41.9057,348.5368,-0.0013244,-0.00021305,0.0,0 STARLINK-3845,1 52541U 22051J   22216.25001157 -.00021305  00000-0 -13244-2 0  9990,2 52541  53.2138 270.3992 0002029  41.9057 348.5368 15.08840709 13151,6917.878000000002,95.438,541.1469999999998,538.34,0.0
52541.0,STARLINK-3845,PAYLOAD,2022-08-04 14:00:01,15.08806827,0.0002207,53.2136,268.904,37.9858,4.0495,0.0026675,0.00042383,0.0,0 STARLINK-3845,1 52541U 22051J   22216.58334491  .00042383  00000-0  26675-2 0  9995,2 52541  53.2136 268.9040 0002207  37.9858   4.0495 15.08806827  1300,6917.982,95.44,541.374,538.32,0.0
52541.0,STARLINK-3845,PAYLOAD,2022-08-04 22:00:00,15.08821632,0.0002014,53.2136,267.4058,41.3594,12.254,0.00058588,9.044e-05,0.0,0 STARLINK-3845,1 52541U 22051J   22216.91667824  .00009044  00000-0  58588-3 0  9997,2 52541  53.2136 267.4058 0002014  41.3594  12.2540 15.08821632  1308,6917.937,95.439,541.195,538.408,0.0
52541.0,STARLINK-3845,PAYLOAD,2022-08-05 06:00:02,15.08849879,0.0002045999999999,53.2136,265.9098,42.8272,22.4212,-0.0017239999999999,-0.00027629,0.0,0 STARLINK-3845,1 52541U 22051J   22217.25002315 -.00027629  00000-0 -17240-2 0  9993,2 52541  53.2136 265.9098 0002046  42.8272  22.4212 15.08849879 13304,6917.85,95.437,541.131,538.3,0.0
52541.0,STARLINK-3845,PAYLOAD,2022-08-05 14:00:01,15.08812833,0.0002205,53.2133,264.4146,38.7409,38.1081,0.0026803,0.00042596,0.0,0 STARLINK-3845,1 52541U 22051J   22217.58335648  .00042596  00000-0  26803-2 0  9990,2 52541  53.2133 264.4146 0002205  38.7409  38.1081 15.08812833  1307,6917.9630000000025,95.439,541.354,538.303,0.0
52541.0,STARLINK-3845,PAYLOAD,2022-08-05 22:00:00,15.08824342,0.0002016,53.2133,262.9164,42.7001,45.674,0.0011143,0.00017483,0.0,0 STARLINK-3845,1 52541U 22051J   22217.91667824  .00017483  00000-0  11143-2 0  9999,2 52541  53.2133 262.9164 0002016  42.7001  45.6740 15.08824342  1306,6917.928000000001,95.439,541.188,538.399,0.0
52541.0,STARLINK-3845,PAYLOAD,2022-08-06 00:00:02,15.08816479,0.0002005999999999,53.2131,262.54200000000003,43.4893,137.8467,0.0024416999999999,0.00038761,0.0,0 STARLINK-3845,1 52541U 22051J   22218.00002315  .00038761  00000-0  24417-2 0  9998,2 52541  53.2131 262.5420 0002006  43.4893 137.8467 15.08816479 13418,6917.9519999999975,95.439,541.205,538.43,0.0
52541.0,STARLINK-3845,PAYLOAD,2022-08-06 11:55:06,15.08832262,0.0002161,53.2138,260.3131,43.3138,316.8023,8.608e-05,1.082e-05,0.0,0 STARLINK-3845,1 52541U 22051J   22218.49660099  .00001082  00000-0  86080-4 0  9992,2 52541  53.2138 260.3131 0002161  43.3138 316.8023 15.08832262 13496,6917.904,95.438,541.264,538.274,0.0
52541.0,STARLINK-3845,PAYLOAD,2022-08-06 22:00:00,15.08826026,0.000206,53.2128,258.4271,43.6806,79.4732,0.0014835,0.00023392,0.0,0 STARLINK-3845,1 52541U 22051J   22218.91667824  .00023392  00000-0  14835-2 0  9997,2 52541  53.2128 258.4271 0002060  43.6806  79.4732 15.08826026  1308,6917.9230000000025,95.438,541.2130000000002,538.363,0.0
52541.0,STARLINK-3845,PAYLOAD,2022-08-07 14:00:01,15.08826616,0.000231,53.2125,255.4359,40.4376,105.9109,0.0024113,0.00038283,0.0,0 STARLINK-3845,1 52541U 22051J   22219.58334491  .00038283  00000-0  24113-2 0  9997,2 52541  53.2125 255.4359 0002310  40.4376 105.9109 15.08826616  1302,6917.920999999999,95.438,541.384,538.188,0.0
52541.0,STARLINK-3845,PAYLOAD,2022-08-07 19:42:48,15.08843854,0.0002233,53.214,254.3654,44.9055,315.2117,9.6844e-05,1.253e-05,0.0,0 STARLINK-3845,1 52541U 22051J   22219.82139599  .00001253  00000-0  96844-4 0  9995,2 52541  53.2140 254.3654 0002233  44.9055 315.2117 15.08843854 13628,6917.869000000002,95.437,541.278,538.189,0.0
52541.0,STARLINK-3845,PAYLOAD,2022-08-08 06:00:00,15.08875943,0.0002251,53.2125,252.442,44.8484,124.703,-0.0027551,-0.00043914,0.0,0 STARLINK-3845,1 52541U 22051J   22220.25001157 -.00043914  00000-0 -27551-2 0  9991,2 52541  53.2125 252.4420 0002251  44.8484 124.7030 15.08875943 13751,6917.771,95.435,541.193,538.078,0.0
52541.0,STARLINK-3845,PAYLOAD,2022-08-08 14:00:01,15.08829984,0.0002346999999999,53.2123,250.9463,39.5446,141.6963,0.001192,0.00018729,0.0,0 STARLINK-3845,1 52541U 22051J   22220.58335648  .00018729  00000-0  11920-2 0  9999,2 52541  53.2123 250.9463 0002347  39.5446 141.6963 15.08829984  1309,6917.911,95.438,541.4,538.1519999999998,0.0
52541.0,STARLINK-3845,PAYLOAD,2022-08-08 20:00:01,15.08836816,0.0002189999999999,53.2126,249.8225,42.3816,57.5562,5.3227e-05,5.59e-06,0.0,0 STARLINK-3845,1 52541U 22051J   22220.83335648  .00000559  00000-0  53227-4 0  9997,2 52541  53.2126 249.8225 0002190  42.3816  57.5562 15.08836816 13848,6917.89,95.438,541.27,538.24,0.0
52541.0,STARLINK-3845,PAYLOAD,2022-08-08 22:00:00,15.08819621,0.0002164,53.2124,249.4481,42.8717,149.907,0.0024985,0.00039678,0.0,0 STARLINK-3845,1 52541U 22051J   22220.91667824  .00039678  00000-0  24985-2 0  9991,2 52541  53.2124 249.4481 0002164  42.8717 149.9070 15.08819621  1305,6917.943,95.439,541.305,538.311,0.0
52541.0,STARLINK-3845,PAYLOAD,2022-08-09 14:00:01,15.08816655,0.0002333,53.2123,246.4568,35.285,180.7027,0.00067712,0.00010498,0.0,0 STARLINK-3845,1 52541U 22051J   22221.58334491  .00010498  00000-0  67712-3 0  9991,2 52541  53.2123 246.4568 0002333  35.2850 180.7027 15.08816655  1308,6917.9519999999975,95.439,541.431,538.203,0.0
52541.0,STARLINK-3845,PAYLOAD,2022-08-09 22:00:00,15.08800216,0.0002156,53.2124,244.9586,39.0174,188.5514,0.0025775,0.00040927,0.0,0 STARLINK-3845,1 52541U 22051J   22221.91667824  .00040927  00000-0  25775-2 0  9999,2 52541  53.2124 244.9586 0002156  39.0174 188.5514 15.08800216 14011,6918.002,95.44,541.359,538.375,0.0
52541.0,STARLINK-3845,PAYLOAD,2022-08-10 14:00:01,15.08827281,0.0002401999999999,53.2122,241.9673,36.7708,213.9477,0.00071626,0.00011126,0.0,0 STARLINK-3845,1 52541U 22051J   22222.58334491  .00011126  00000-0  71626-3 0  9990,2 52541  53.2122 241.9673 0002402  36.7708 213.9477 15.08827281  1304,6917.919,95.438,541.446,538.123,0.0
52541.0,STARLINK-3845,PAYLOAD,2022-08-10 17:07:18,15.08848274,0.0002319,53.2123,241.3825,38.3105,199.298,-0.0022619,-0.00036116,0.0,0 STARLINK-3845,1 52541U 22051J   22222.71341435 -.00036116  00000-0 -22619-2 0  9996,2 52541  53.2123 241.3825 0002319  38.3105 199.2980 15.08848274 14139,6917.855,95.437,541.3240000000002,538.116,0.0
52541.0,STARLINK-3845,PAYLOAD,2022-08-10 22:00:00,15.0880985,0.0002223,53.2124,240.469,40.94300000000001,221.3681,0.0027104,0.00043077,0.0,0 STARLINK-3845,1 52541U 22051J   22222.91667824  .00043077  00000-0  27104-2 0  9997,2 52541  53.2124 240.4690 0002223  40.9430 221.3681 15.08809850  1301,6917.973000000001,95.439,541.375,538.3,0.0
52541.0,STARLINK-3845,PAYLOAD,2022-08-11 06:00:02,15.08846684,0.000236,53.2124,238.9737,40.3847,233.567,-0.0014657,-0.00023545,0.0,0 STARLINK-3845,1 52541U 22051J   22223.25002315 -.00023545  00000-0 -14657-2 0  9992,2 52541  53.2124 238.9737 0002360  40.3847 233.5670 15.08846684 14216,6917.86,95.437,541.3580000000002,538.092,0.0
52541.0,STARLINK-3845,PAYLOAD,2022-08-11 14:00:01,15.08840806,0.0002433,53.2121,237.4775,38.0834,247.396,-9.5231e-05,-1.804e-05,0.0,0 STARLINK-3845,1 52541U 22051J   22223.58334491 -.00001804  00000-0 -95231-4 0  9994,2 52541  53.2121 237.4775 0002433  38.0834 247.3960 15.08840806  1301,6917.878000000002,95.438,541.4259999999998,538.06,0.0
52541.0,STARLINK-3845,PAYLOAD,2022-08-11 22:00:00,15.08816521,0.0002248,53.2123,235.9793,42.8277,254.2559,0.002871,0.00045672,0.0,0 STARLINK-3845,1 52541U 22051J   22223.91667824  .00045672  00000-0  28710-2 0  9995,2 52541  53.2123 235.9793 0002248  42.8277 254.2559 15.08816521 14317,6917.9519999999975,95.439,541.372,538.262,0.0
52541.0,STARLINK-3845,PAYLOAD,2022-08-12 14:00:01,15.08863331,0.0002408,53.2119,232.9876,39.0457,281.2265,-0.0021798,-0.00034836,0.0,0 STARLINK-3845,1 52541U 22051J   22224.58334491 -.00034836  00000-0 -21798-2 0  9991,2 52541  53.2119 232.9876 0002408  39.0457 281.2265 15.08863331  1307,6917.809,95.436,541.34,538.008,0.0
52541.0,STARLINK-3845,PAYLOAD,2022-08-12 22:00:01,15.088062099999998,0.0002191999999999,53.2121,231.4895,43.2828,288.6705,0.0021872,0.00034661,0.0,0 STARLINK-3845,1 52541U 22051J   22224.91668981  .00034661  00000-0  21872-2 0  9999,2 52541  53.2121 231.4895 0002192  43.2828 288.6705 15.08806210  1307,6917.984,95.44,541.365,538.332,0.0
52541.0,STARLINK-3845,PAYLOAD,2022-08-13 14:00:01,15.08835223,0.000239,53.2118,228.4979,39.5077,315.5059,-0.0011814,-0.0001904,0.0,0 STARLINK-3845,1 52541U 22051J   22225.58334491 -.00019040  00000-0 -11814-2 0  9990,2 52541  53.2118 228.4979 0002390  39.5077 315.5059 15.08835223  1304,6917.895,95.438,541.413,538.107,0.0
52541.0,STARLINK-3845,PAYLOAD,2022-08-13 22:00:00,15.0880423,0.0002228,53.2119,227.0,45.0388,321.5635,0.0028221,0.00044869,0.0,0 STARLINK-3845,1 52541U 22051J   22225.91667824  .00044869  00000-0  28221-2 0  9991,2 52541  53.2119 227.0000 0002228  45.0388 321.5635 15.08804230  1303,6917.99,95.44,541.396,538.313,0.0
